#dP2022  2 24 18  0  0.00000000      96 __u+U ITR00 EXT  IAC
## 2198 410400.00000000   900.00000000 59634 0.7500000000000
+  117   C06C07C08C09C10C11C12C13C14C16C19C20C21C22C23C24C25
+        C26C27C28C29C30C32C33C34C35C36C37C38C39C40C41C42C43
+        C44C45C46E01E02E03E04E05E07E09E10E11E12E13E14E15E18
+        E19E21E24E25E26E27E30E31E33E34E36G01G02G03G04G05G06
+        G07G08G09G10G11G12G13G14G15G16G17G18G19G20G21G22G23
+        G24G25G26G27G28G29G30G31G32J01J02J03R01R02R03R04R05
+        R07R08R09R11R12R13R14R15R17R18R19R20R21R22R24  0  0
++         9  8  9  8  9  7  8 10  9  9  8  8  8  8  8  9  8
++         8 10  8  9  9  9  9  9  8  9  8 10  8 10  9  8  8
++         8  8  8  8  9  8  8  8  9  7 10  8  8  7  8  6  7
++         7  7  8  7  8  7  8  8  8  8  9  7  8  7  9  7  7
++         8  7  7  8  7  7  8  7  8  7  8  7  8  8  6  8  7
++         7  7  7  8  8  8  7  7  7 10 10 10  8  7  9  8  9
++         9  7  8  8  9  8  9  7  7  8  8  9  8  8  9  0  0
%c M  cc GPS ccc cccc cccc cccc cccc ccccc ccccc ccccc ccccc
%c cc cc ccc ccc cccc cccc cccc cccc ccccc ccccc ccccc ccccc
%f  0.0000000  0.000000000  0.00000000000  0.000000000000000
%f  0.0000000  0.000000000  0.00000000000  0.000000000000000
%i    0    0    0    0      0      0      0      0         0
%i    0    0    0    0      0      0      0      0         0
/* IAC                                ULTRA-RAPID PREDICTION
/* S/V CLOCKS ARE ALIGNED TO GNSS TIME                      
/* G:C1WC2W R:C1PC2P E:C1XC5X C:C2IC6I J:C1CC2S             
/* PCV:IGS14_2196 OL/AL:FES2004  NONE     YN ORB:CoN CLK:CoN
*  2022 02 25 14 15  0.00000000
PC06 -16777.889128  25197.655628 -29434.939032    112.672587
PC07 -11476.600750  40340.748969  -3502.842037    -97.393280
PC08    371.124347  27220.005206  32260.963364    158.912985
PC09  -6015.028171  24983.485082 -33186.348324   -554.173992
PC10  -5481.687722  41417.764083   3549.052403    139.603644
PC11   1527.261357  15324.343777  23336.779912   -186.426771
PC12 -17892.076739  14575.316326  15723.313097    681.364460
PC13   7377.157334  31515.376635  27300.785641   -106.265959
PC14   -512.861588  26046.172074  -9905.752435    452.911795
PC16 -17870.548372  24698.495017 -29075.035828     90.307993
PC19  -6433.236319 -20795.545741  17500.022456    892.752399
PC20   6152.918554 -27116.864605   2542.807869   -831.425668
PC21 -15871.746399  17443.659520  14924.265373   -935.564091
PC22 -15784.882493  -2228.584474  22908.525414   -958.595739
PC23  22488.669578  11105.550867  12239.291799   -953.186379
PC24   -321.350882  20060.258964 -19425.124434   -944.501800
PC25  17043.479708  21687.398073  -4328.372884   -774.202858
PC26 -14952.532283   7608.724472 -22308.801619    774.148292
PC27  24337.068198 -11085.429851  -7956.104910    683.015319
PC28  26243.966706    814.177409   9454.657620     36.877757
PC29 -12999.982952 -12024.118411 -21575.324799    519.968408
PC30   8408.859360 -16936.809711 -20518.526238    494.069656
PC32  15735.302260 -17566.283788 -14905.418912   -970.022038
PC33   6501.631519  20810.593797 -17401.206318   -960.082456
PC34  -7427.854276  16962.877034  20875.739205   -461.047375
PC35 -26024.424805   -464.788568 -10123.833446    156.067369
PC36 -16197.044278 -22208.084506   4807.293635   -918.326747
PC37  15931.424718  -6168.381837  22077.513227   -953.951424
PC38  -6891.032570  24689.041322  33538.657536    213.952079
PC39 -23716.598691  24815.999144 -24579.601385     34.828078
PC40 -16831.946418  38080.713250  -6108.085993    247.459624
PC41  15687.327085   2650.231824 -22872.263931   -943.881079
PC42  -6806.581041  27010.475074  -1501.003744   -933.315584
PC43  12272.617192  12506.018448  21705.875220   -939.547412
PC44 -24084.211788  11855.064980   7689.911056    576.421291
PC45 -22431.629216 -10902.091083 -12496.265544    689.870146
PC46  -1052.023843 -20608.180870  18762.953917   -187.489633
PE01  15398.897534  -6658.230237  24381.955327   -585.917092
PE02 -15337.739097   6875.287444 -24373.118082    282.567469
PE03 -24124.061404  14312.524011   9438.490070   -531.465060
PE04  15342.302834 -23728.945324   8817.178700   -972.326219
PE05 -18890.059218  -3698.690590  22490.036635   -205.709907
PE07   2733.879883  19301.994934 -22266.737289   -642.626095
PE09  -2922.245050 -19077.061874  22449.274820   5348.033114
PE10  -2241.953811 -16828.166439 -24249.935352   -497.319251
PE11 -13673.067906 -17147.630892 -19892.345496   4369.276198
PE12   9039.039647 -14021.503542 -24444.678295   4741.752983
PE13  13016.031745  17124.426653  20337.648448    426.827579
PE14 -22826.578644  11400.389085  -3632.933550  -1758.252370
PE15  -9180.803860  13907.085908  24474.826823    761.176164
PE18  19967.284735 -22157.283382  -9691.993297  -1750.773804
PE19  24248.882613 -12381.315905 -11600.022519   -371.448239
PE21  17258.277253  14077.003681  19497.913871   -719.239871
PE24  -8436.070199 -28289.559930  -1941.656994  -1410.009944
PE25 -17217.896835 -14310.230668 -19355.826375   -564.840618
PE26  27730.044992   9819.707009   3278.605862   -846.713582
PE27   9311.532824  27931.644345   3139.629405   -240.352046
PE30  -4919.897347  24607.337830 -15730.556667   -302.803216
PE31   4055.584890 -25226.437839  14937.590379   -492.704245
PE33  25862.849213  -2500.569097 -14158.236951   -459.100399
PE34 -25756.914425   2692.193958  14333.610159   -503.727267
PE36 -27444.213770 -10256.392890  -4261.847568   -337.319854
PG01 -21664.910162 -14368.621026  -6565.535581    422.705058
PG02   2998.819880  16532.488743  21204.266745   -651.468470
PG03 -12692.950006 -17410.924847  15500.817766   -137.690786
PG04 -14860.566366  -7332.133563  20779.134079   -187.390804
PG05   5431.647721  25859.720052  -1846.147215    -72.675098
PG06 -13777.685292   9090.890042  20895.448488    212.791738
PG07 -24993.992500  -4523.319663  -8195.832765    312.710310
PG08  -5331.430271 -14691.433085 -21457.260257    -57.582429
PG09 -21663.540255   3430.004061  14931.810717   -352.585557
PG10  12148.339911 -12397.921250 -19872.165870   -330.389076
PG11   1252.565975  16684.849227  20628.615560    -77.928420
PG12  10016.775966  20652.416526  13210.243747   -176.345246
PG13  -4138.141073  17637.136437 -19519.274356    267.496343
PG14 -13305.003592  11422.833928 -19933.635174    -87.932946
PG15   8010.691752  14295.027798 -21274.819545    -81.127955
PG16    270.727883 -26245.313759   1451.609506   -473.889510
PG17 -22560.496466  13998.217172   -967.302998    579.770329
PG18  24640.676734   4367.330329  -9053.754212    232.531428
PG19 -19826.008565  16393.015802   5942.516812    123.583654
PG20    694.418457  25309.075045   8434.940757    516.548275
PG21 -15684.778159 -15846.508697 -14229.420105    158.597177
PG22  16901.007093 -18283.419515   9375.906631    218.900344
PG23  15186.483646      6.544054 -21806.019400     -1.882542
PG24  19617.431336  14983.593906 -10624.659014    272.433047
PG25  15171.067115   8340.950270  19934.865264    290.493418
PG26   6315.822638 -21760.009255  13522.357851    186.188107
PG27   6263.257950 -19261.888957 -17163.702121    133.525119
PG28  -9650.640296  19601.295297 -14741.589491    392.794594
PG29  20673.371995     31.396782  16661.924325   -484.560433
PG30 -21380.281292   2922.390872 -15570.009939   -515.496163
PG31  12091.418572 -10796.783477  20990.488221   -166.358584
PG32      0.000000      0.000000      0.000000    -74.106635
PJ01 -33780.312060  24212.537092  11985.433371    229.088115
PJ02 -20212.130220  24917.743636 -22820.095245     -1.581990
PJ03 -30312.296947  25542.082640  19399.853220     -0.693319
PR01  11411.928350 -22809.123333   -717.591586      7.138153
PR02    337.153299 -18521.169053  17548.419770    510.766313
PR03 -10490.097886  -3481.357086  23037.387346     52.119725
PR04 -15132.313088  13264.357331  15712.881048    129.331566
PR05 -11653.628760  22703.538374   -311.886980     88.358232
PR07  10751.042118   2840.191278 -22913.367602     32.033144
PR08  15132.021223 -13396.077405 -15488.190861    -63.730508
PR09  12034.715251  21958.359391  -4658.478892     41.378236
PR11  12343.282680   -571.526250  22319.694431     44.907689
PR12    207.570054 -16596.688259  19379.286404     17.283178
PR13 -11428.801931 -22043.545040   5808.782408    -18.720092
PR14 -16833.913110 -14567.068458 -12458.436075     74.775716
PR15 -12058.802508   1215.064312 -22431.284489     97.956842
PR17 -22712.668206  -3900.650411 -10890.352215    504.724673
PR18 -24593.060279   3598.690446   5886.974137    108.473004
PR19 -14734.915858   8599.251085  18967.144835   -179.482758
PR20   7009.726469   9873.065507  22453.459990    -65.607197
PR21  23406.300943   3354.475457   9596.579326   -280.830950
PR22  24232.911528  -3827.059629  -6799.325198   -166.966351
PR24  -8042.942899 -10031.410441 -22009.442400     81.817648
EOF
